[{"OBJECT_NAME":"STARLINK-3933","OBJECT_ID":"2022-051F","EPOCH":"2026-03-09T13:30:33.664032","MEAN_MOTION":15.08838818,"ECCENTRICITY":0.0001494,"INCLINATION":53.2169,"RA_OF_ASC_NODE":129.6906,"ARG_OF_PERICENTER":89.1545,"MEAN_ANOMALY":270.9618,"EPHEMERIS_TYPE":0,"CLASSIFICATION_TYPE":"U","NORAD_CAT_ID":52538,"ELEMENT_SET_NO":999,"REV_AT_EPOCH":21142,"BSTAR":2.7312e-6,"MEAN_MOTION_DOT":-2.45e-6,"MEAN_MOTION_DDOT":0},{"OBJECT_NAME":"YUNYAO-1 45","OBJECT_ID":"2025-059C","EPOCH":"2026-03-09T23:25:14.115648","MEAN_MOTION":15.10348188,"ECCENTRICITY":0.00171316,"INCLINATION":97.6099,"RA_OF_ASC_NODE":251.0366,"ARG_OF_PERICENTER":134.7318,"MEAN_ANOMALY":225.5309,"EPHEMERIS_TYPE":0,"CLASSIFICATION_TYPE":"U","NORAD_CAT_ID":63346,"ELEMENT_SET_NO":999,"REV_AT_EPOCH":5332,"BSTAR":0.00033512738,"MEAN_MOTION_DOT":5.451e-5,"MEAN_MOTION_DDOT":0}]
